{"type": "FeatureCollection", "features": [ {"type": "Feature", "properties": {"norad_id": 66563, "name": "STARLINK-35437", "group": "last-30-days", "lat": 18.939882118307466, "lon": -25.495419375920456, "alt_km": 342.5481256044086, "timestamp": "2025-12-03T10:52:56.222833+00:00", "meta": {"OBJECT_NAME": "STARLINK-35437", "OBJECT_ID": "2025-268G", "EPOCH": "2025-12-03T04:00:01.998720", "MEAN_MOTION": 15.75191574, "ECCENTRICITY": 0.0002053, "INCLINATION": 42.9986, "RA_OF_ASC_NODE": 177.854, "ARG_OF_PERICENTER": 271.0689, "MEAN_ANOMALY": 52.5791, "EPHEMERIS_TYPE": 0, "CLASSIFICATION_TYPE": "U", "NORAD_CAT_ID": 66563, "ELEMENT_SET_NO": 999, "REV_AT_EPOCH": 313, "BSTAR": -0.0028557, "MEAN_MOTION_DOT": -0.00420846, "MEAN_MOTION_DDOT": 0}, "tle": {"line1": "1 66563U 25268G   25337.16668980 -.00420846  00000+0 -28557-2 0  9997", "line2": "2 66563  42.9986 177.8540 0002053 271.0689  52.5791 15.75191574  3132"}}, "geometry": {"type": "Point", "coordinates": [-25.495419375920456, 18.939882118307466]}}, {"type": "Feature", "properties": {"norad_id": 66564, "name": "STARLINK-35358", "group": "last-30-days", "lat": 17.718953780322906, "lon": -23.943968996150904, "alt_km": 342.60622259108277, "timestamp": "2025-12-03T10:52:56.222843+00:00", "meta": {"OBJECT_NAME": "STARLINK-35358", "OBJECT_ID": "2025-268H", "EPOCH": "2025-12-03T04:00:01.998720", "MEAN_MOTION": 15.75186131, "ECCENTRICITY": 0.0002078, "INCLINATION": 42.9986, "RA_OF_ASC_NODE": 177.8495, "ARG_OF_PERICENTER": 266.4113, "MEAN_ANOMALY": 59.1565, "EPHEMERIS_TYPE": 0, "CLASSIFICATION_TYPE": "U", "NORAD_CAT_ID": 66564, "ELEMENT_SET_NO": 999, "REV_AT_EPOCH": 308, "BSTAR": -0.0028076, "MEAN_MOTION_DOT": -0.00413993, "MEAN_MOTION_DDOT": 0}, "tle": {"line1": "1 66564U 25268H   25337.16668980 -.00413993  00000+0 -28076-2 0  9999", "line2": "2 66564  42.9986 177.8495 0002078 266.4113  59.1565 15.75186131  3088"}}, "geometry": {"type": "Point", "coordinates": [-23.943968996150904, 17.718953780322906]}}, {"type": "Feature", "properties": {"norad_id": 66565, "name": "STARLINK-35893", "group": "last-30-days", "lat": 16.48737256356231, "lon": -22.416058577378152, "alt_km": 343.16768817513, "timestamp": "2025-12-03T10:52:56.222853+00:00", "meta": {"OBJECT_NAME": "STARLINK-35893", "OBJECT_ID": "2025-268J", "EPOCH": "2025-12-03T04:00:01.998720", "MEAN_MOTION": 15.75197833, "ECCENTRICITY": 0.0002473, "INCLINATION": 42.9986, "RA_OF_ASC_NODE": 177.8444, "ARG_OF_PERICENTER": 278.824, "MEAN_ANOMALY": 48.6485, "EPHEMERIS_TYPE": 0, "CLASSIFICATION_TYPE": "U", "NORAD_CAT_ID": 66565, "ELEMENT_SET_NO": 999, "REV_AT_EPOCH": 313, "BSTAR": -0.0028663, "MEAN_MOTION_DOT": -0.00422486, "MEAN_MOTION_DDOT": 0}, "tle": {"line1": "1 66565U 25268J   25337.16668980 -.00422486  00000+0 -28663-2 0  9999", "line2": "2 66565  42.9986 177.8444 0002473 278.8240  48.6485 15.75197833  3131"}}, "geometry": {"type": "Point", "coordinates": [-22.416058577378152, 16.48737256356231]}}, {"type": "Feature", "properties": {"norad_id": 66566, "name": "STARLINK-35871", "group": "last-30-days", "lat": 15.240914515224212, "lon": -20.90267189783833, "alt_km": 343.2707919743407, "timestamp": "2025-12-03T10:52:56.222863+00:00", "meta": {"OBJECT_NAME": "STARLINK-35871", "OBJECT_ID": "2025-268K", "EPOCH": "2025-12-03T04:00:01.998720", "MEAN_MOTION": 15.75193759, "ECCENTRICITY": 0.0002403, "INCLINATION": 42.9987, "RA_OF_ASC_NODE": 177.8395, "ARG_OF_PERICENTER": 277.7435, "MEAN_ANOMALY": 51.6516, "EPHEMERIS_TYPE": 0, "CLASSIFICATION_TYPE": "U", "NORAD_CAT_ID": 66566, "ELEMENT_SET_NO": 999, "REV_AT_EPOCH": 313, "BSTAR": -0.0028559, "MEAN_MOTION_DOT": -0.0042095, "MEAN_MOTION_DDOT": 0}, "tle": {"line1": "1 66566U 25268K   25337.16668980 -.00420950  00000+0 -28559-2 0  9998", "line2": "2 66566  42.9987 177.8395 0002403 277.7435  51.6516 15.75193759  3137"}}, "geometry": {"type": "Point", "coordinates": [-20.90267189783833, 15.240914515224212]}}, {"type": "Feature", "properties": {"norad_id": 66567, "name": "STARLINK-35825", "group": "last-30-days", "lat": 13.994153082530472, "lon": -19.41859153143667, "alt_km": 343.04551081550835, "timestamp": "2025-12-03T10:52:56.222873+00:00", "meta": {"OBJECT_NAME": "STARLINK-35825", "OBJECT_ID": "2025-268L", "EPOCH": "2025-12-03T04:00:01.998720", "MEAN_MOTION": 15.75174602, "ECCENTRICITY": 0.0001826, "INCLINATION": 42.9987, "RA_OF_ASC_NODE": 177.8349, "ARG_OF_PERICENTER": 271.3916, "MEAN_ANOMALY": 59.9053, "EPHEMERIS_TYPE": 0, "CLASSIFICATION_TYPE": "U", "NORAD_CAT_ID": 66567, "ELEMENT_SET_NO": 999, "REV_AT_EPOCH": 313, "BSTAR": -0.0024676, "MEAN_MOTION_DOT": -0.00365758, "MEAN_MOTION_DDOT": 0}, "tle": {"line1": "1 66567U 25268L   25337.16668980 -.00365758  00000+0 -24676-2 0  9999", "line2": "2 66567  42.9987 177.8349 0001826 271.3916  59.9053 15.75174602  3132"}}, "geometry": {"type": "Point", "coordinates": [-19.41859153143667, 13.994153082530472]}}, {"type": "Feature", "properties": {"norad_id": 66568, "name": "STARLINK-35803", "group": "last-30-days", "lat": 12.718846315738032, "lon": -17.928790229216258, "alt_km": 343.2231467492111, "timestamp": "2025-12-03T10:52:56.222887+00:00", "meta": {"OBJECT_NAME": "STARLINK-35803", "OBJECT_ID": "2025-268M", "EPOCH": "2025-12-03T04:00:01.998720", "MEAN_MOTION": 15.75187292, "ECCENTRICITY": 0.0001634, "INCLINATION": 42.9985, "RA_OF_ASC_NODE": 177.8295, "ARG_OF_PERICENTER": 273.4555, "MEAN_ANOMALY": 59.7719, "EPHEMERIS_TYPE": 0, "CLASSIFICATION_TYPE": "U", "NORAD_CAT_ID": 66568, "ELEMENT_SET_NO": 999, "REV_AT_EPOCH": 313, "BSTAR": -0.0027361, "MEAN_MOTION_DOT": -0.00403911, "MEAN_MOTION_DDOT": 0}, "tle": {"line1": "1 66568U 25268M   25337.16668980 -.00403911  00000+0 -27361-2 0  9998", "line2": "2 66568  42.9985 177.8295 0001634 273.4555  59.7719 15.75187292  3136"}}, "geometry": {"type": "Point", "coordinates": [-17.928790229216258, 12.718846315738032]}}, {"type": "Feature", "properties": {"norad_id": 66569, "name": "STARLINK-35835", "group": "last-30-days", "lat": 11.448627585507964, "lon": -16.468008803880014, "alt_km": 343.3019811823815, "timestamp": "2025-12-03T10:52:56.222897+00:00", "meta": {"OBJECT_NAME": "STARLINK-35835", "OBJECT_ID": "2025-268N", "EPOCH": "2025-12-03T04:00:01.998720", "MEAN_MOTION": 15.75195957, "ECCENTRICITY": 0.0001924, "INCLINATION": 42.9989, "RA_OF_ASC_NODE": 177.8251, "ARG_OF_PERICENTER": 266.5706, "MEAN_ANOMALY": 68.5702, "EPHEMERIS_TYPE": 0, "CLASSIFICATION_TYPE": "U", "NORAD_CAT_ID": 66569, "ELEMENT_SET_NO": 999, "REV_AT_EPOCH": 313, "BSTAR": -0.0028332, "MEAN_MOTION_DOT": -0.00417741, "MEAN_MOTION_DDOT": 0}, "tle": {"line1": "1 66569U 25268N   25337.16668980 -.00417741  00000+0 -28332-2 0  9994", "line2": "2 66569  42.9989 177.8251 0001924 266.5706  68.5702 15.75195957  3133"}}, "geometry": {"type": "Point", "coordinates": [-16.468008803880014, 11.448627585507964]}}, {"type": "Feature", "properties": {"norad_id": 66570, "name": "STARLINK-35834", "group": "last-30-days", "lat": 10.167031807397082, "lon": -15.016606220995534, "alt_km": 343.9134890572732, "timestamp": "2025-12-03T10:52:56.222907+00:00", "meta": {"OBJECT_NAME": "STARLINK-35834", "OBJECT_ID": "2025-268P", "EPOCH": "2025-12-03T04:00:01.998720", "MEAN_MOTION": 15.75205776, "ECCENTRICITY": 0.0002339, "INCLINATION": 42.9986, "RA_OF_ASC_NODE": 177.8201, "ARG_OF_PERICENTER": 281.2151, "MEAN_ANOMALY": 55.8439, "EPHEMERIS_TYPE": 0, "CLASSIFICATION_TYPE": "U", "NORAD_CAT_ID": 66570, "ELEMENT_SET_NO": 999, "REV_AT_EPOCH": 313, "BSTAR": -0.002973, "MEAN_MOTION_DOT": -0.00437572, "MEAN_MOTION_DDOT": 0}, "tle": {"line1": "1 66570U 25268P   25337.16668980 -.00437572  00000+0 -29730-2 0  9993", "line2": "2 66570  42.9986 177.8201 0002339 281.2151  55.8439 15.75205776  3133"}}, "geometry": {"type": "Point", "coordinates": [-15.016606220995534, 10.167031807397082]}}, {"type": "Feature", "properties": {"norad_id": 66571, "name": "STARLINK-35836", "group": "last-30-days", "lat": 8.881677359487357, "lon": -13.57915309487163, "alt_km": 343.7485023901936, "timestamp": "2025-12-03T10:52:56.222917+00:00", "meta": {"OBJECT_NAME": "STARLINK-35836", "OBJECT_ID": "2025-268Q", "EPOCH": "2025-12-03T04:00:01.998720", "MEAN_MOTION": 15.75210331, "ECCENTRICITY": 0.0001711, "INCLINATION": 42.9989, "RA_OF_ASC_NODE": 177.8155, "ARG_OF_PERICENTER": 276.5511, "MEAN_ANOMALY": 62.4112, "EPHEMERIS_TYPE": 0, "CLASSIFICATION_TYPE": "U", "NORAD_CAT_ID": 66571, "ELEMENT_SET_NO": 999, "REV_AT_EPOCH": 313, "BSTAR": -0.0029137, "MEAN_MOTION_DOT": -0.00429271, "MEAN_MOTION_DDOT": 0}, "tle": {"line1": "1 66571U 25268Q   25337.16668980 -.00429271  00000+0 -29137-2 0  9992", "line2": "2 66571  42.9989 177.8155 0001711 276.5511  62.4112 15.75210331  3130"}}, "geometry": {"type": "Point", "coordinates": [-13.57915309487163, 8.881677359487357]}}, {"type": "Feature", "properties": {"norad_id": 66572, "name": "STARLINK-35870", "group": "last-30-days", "lat": 7.629618412285138, "lon": -12.193922424591321, "alt_km": 343.857898139433, "timestamp": "2025-12-03T10:52:56.222929+00:00", "meta": {"OBJECT_NAME": "STARLINK-35870", "OBJECT_ID": "2025-268R", "EPOCH": "2025-12-03T04:00:01.998720", "MEAN_MOTION": 15.75158269, "ECCENTRICITY": 0.0002933, "INCLINATION": 42.9991, "RA_OF_ASC_NODE": 177.8116, "ARG_OF_PERICENTER": 269.3393, "MEAN_ANOMALY": 71.511, "EPHEMERIS_TYPE": 0, "CLASSIFICATION_TYPE": "U", "NORAD_CAT_ID": 66572, "ELEMENT_SET_NO": 999, "REV_AT_EPOCH": 313, "BSTAR": -0.0020575, "MEAN_MOTION_DOT": -0.00307019, "MEAN_MOTION_DDOT": 0}, "tle": {"line1": "1 66572U 25268R   25337.16668980 -.00307019  00000+0 -20575-2 0  9995", "line2": "2 66572  42.9991 177.8116 0002933 269.3393  71.5110 15.75158269  3136"}}, "geometry": {"type": "Point", "coordinates": [-12.193922424591321, 7.629618412285138]}}]}